start=new Date('2022-09-27T00:00:00.000Z').valueOf();
sats=[{"APOAPSIS":"548.099","RA_OF_ASC_NODE":"57.2204","CLASSIFICATION_TYPE":"U","COUNTRY_CODE":"US","CENTER_NAME":"EARTH","TLE_LINE1":"1 46580U 20070BA  22269.85873364 -.00000397  00000-0 -77767-5 0  9997","PERIAPSIS":"546.349","OBJECT_TYPE":"PAYLOAD","LAUNCH_DATE":"2020-10-06","MEAN_ANOMALY":"262.8499","PERIOD":"95.592","MEAN_MOTION_DOT":"-0.00000397","TLE_LINE2":"2 46580  53.0570  57.2204 0001263  97.2634 262.8499 15.06396571109832","TIME_SYSTEM":"UTC","DECAY_DATE":null,"REV_AT_EPOCH":"10983","EPOCH":"2022-09-26T20:36:34.586496","SEMIMAJOR_AXIS":"6925.359","OBJECT_ID":"2020-070BA","ARG_OF_PERICENTER":"97.2634","ELEMENT_SET_NO":"999","GP_ID":"213597452","SITE":"AFETR","RCS_SIZE":"LARGE","INCLINATION":"53.0570","OBJECT_NAME":"STARLINK-1708","MEAN_ELEMENT_THEORY":"SGP4","REF_FRAME":"TEME","MEAN_MOTION":"15.06396571","MEAN_MOTION_DDOT":"0.0000000000000","EPHEMERIS_TYPE":"0","FILE":"3584555","NORAD_CAT_ID":"46580","BSTAR":"-0.00000777670000","ECCENTRICITY":"0.00012630"},{"BSTAR":"-0.00001688200000","ECCENTRICITY":"0.00015350","MEAN_MOTION_DDOT":"0.0000000000000","MEAN_MOTION":"15.06395257","EPHEMERIS_TYPE":"0","NORAD_CAT_ID":"46581","FILE":"3584555","RCS_SIZE":"LARGE","INCLINATION":"53.0548","OBJECT_NAME":"STARLINK-1712","MEAN_ELEMENT_THEORY":"SGP4","REF_FRAME":"TEME","OBJECT_ID":"2020-070BB","ARG_OF_PERICENTER":"70.6231","ELEMENT_SET_NO":"999","GP_ID":"213596205","SITE":"AFETR","PERIOD":"95.592","MEAN_MOTION_DOT":"-0.00000533","TLE_LINE2":"2 46581  53.0548  52.3834 0001535  70.6231 289.4924 15.06395257109897","TIME_SYSTEM":"UTC","DECAY_DATE":null,"REV_AT_EPOCH":"10989","EPOCH":"2022-09-26T19:46:49.023264","SEMIMAJOR_AXIS":"6925.363","OBJECT_TYPE":"PAYLOAD","LAUNCH_DATE":"2020-10-06","MEAN_ANOMALY":"289.4924","CLASSIFICATION_TYPE":"U","COUNTRY_CODE":"US","CENTER_NAME":"EARTH","TLE_LINE1":"1 46581U 20070BB  22269.82417851 -.00000533  00000-0 -16882-4 0  9992","PERIAPSIS":"546.165","APOAPSIS":"548.291","RA_OF_ASC_NODE":"52.3834"},{"EPHEMERIS_TYPE":"0","MEAN_MOTION":"15.06400806","MEAN_MOTION_DDOT":"0.0000000000000","NORAD_CAT_ID":"46582","FILE":"3584555","BSTAR":"-0.00010133000000","ECCENTRICITY":"0.00013820","OBJECT_ID":"2020-070BC","ELEMENT_SET_NO":"999","ARG_OF_PERICENTER":"86.4541","SITE":"AFETR","GP_ID":"213596455","RCS_SIZE":"LARGE","INCLINATION":"53.0558","OBJECT_NAME":"STARLINK-1728","MEAN_ELEMENT_THEORY":"SGP4","REF_FRAME":"TEME","OBJECT_TYPE":"PAYLOAD","MEAN_ANOMALY":"273.6606","LAUNCH_DATE":"2020-10-06","MEAN_MOTION_DOT":"-0.00001790","PERIOD":"95.592","TIME_SYSTEM":"UTC","TLE_LINE2":"2 46582  53.0558  53.0471 0001382  86.4541 273.6606 15.06400806109870","REV_AT_EPOCH":"10987","EPOCH":"2022-09-26T16:14:29.982624","DECAY_DATE":null,"SEMIMAJOR_AXIS":"6925.346","RA_OF_ASC_NODE":"53.0471","APOAPSIS":"548.168","COUNTRY_CODE":"US","CLASSIFICATION_TYPE":"U","CENTER_NAME":"EARTH","PERIAPSIS":"546.254","TLE_LINE1":"1 46582U 20070BC  22269.67673591 -.00001790  00000-0 -10133-3 0  9999"},{"FILE":"3584555","NORAD_CAT_ID":"46583","MEAN_MOTION":"15.06397308","MEAN_MOTION_DDOT":"0.0000000000000","EPHEMERIS_TYPE":"0","BSTAR":"-0.00004091500000","ECCENTRICITY":"0.00016990","GP_ID":"213597205","SITE":"AFETR","OBJECT_ID":"2020-070BD","ARG_OF_PERICENTER":"110.8209","ELEMENT_SET_NO":"999","MEAN_ELEMENT_THEORY":"SGP4","REF_FRAME":"TEME","INCLINATION":"53.0585","RCS_SIZE":"LARGE","OBJECT_NAME":"STARLINK-1729","LAUNCH_DATE":"2020-10-06","MEAN_ANOMALY":"249.2962","OBJECT_TYPE":"PAYLOAD","DECAY_DATE":null,"REV_AT_EPOCH":"10959","EPOCH":"2022-09-26T17:26:09.501504","SEMIMAJOR_AXIS":"6925.357","PERIOD":"95.592","MEAN_MOTION_DOT":"-0.00000891","TLE_LINE2":"2 46583  53.0585  72.8194 0001699 110.8209 249.2962 15.06397308109591","TIME_SYSTEM":"UTC","APOAPSIS":"548.398","RA_OF_ASC_NODE":"72.8194","CENTER_NAME":"EARTH","TLE_LINE1":"1 46583U 20070BD  22269.72649886 -.00000891  00000-0 -40915-4 0  9999","PERIAPSIS":"546.045","CLASSIFICATION_TYPE":"U","COUNTRY_CODE":"US"},{"SITE":"AFETR","GP_ID":"213596952","OBJECT_ID":"2020-070BE","ELEMENT_SET_NO":"999","ARG_OF_PERICENTER":"80.5126","MEAN_ELEMENT_THEORY":"SGP4","REF_FRAME":"TEME","RCS_SIZE":"LARGE","INCLINATION":"53.0572","OBJECT_NAME":"STARLINK-1732","FILE":"3584555","NORAD_CAT_ID":"46584","EPHEMERIS_TYPE":"0","MEAN_MOTION":"15.06399026","MEAN_MOTION_DDOT":"0.0000000000000","BSTAR":"0.00002982500000","ECCENTRICITY":"0.00014820","RA_OF_ASC_NODE":"53.0250","APOAPSIS":"548.243","CENTER_NAME":"EARTH","PERIAPSIS":"546.190","TLE_LINE1":"1 46584U 20070BE  22269.68041510  .00000163  00000-0  29825-4 0  9992","COUNTRY_CODE":"US","CLASSIFICATION_TYPE":"U","MEAN_ANOMALY":"279.6031","LAUNCH_DATE":"2020-10-06","OBJECT_TYPE":"PAYLOAD","EPOCH":"2022-09-26T16:19:47.864640","REV_AT_EPOCH":"10987","DECAY_DATE":null,"SEMIMAJOR_AXIS":"6925.352","MEAN_MOTION_DOT":"0.00000163","PERIOD":"95.592","TIME_SYSTEM":"UTC","TLE_LINE2":"2 46584  53.0572  53.0250 0001482  80.5126 279.6031 15.06399026109877"},{"LAUNCH_DATE":"2020-10-06","MEAN_ANOMALY":"291.1842","OBJECT_TYPE":"PAYLOAD","DECAY_DATE":null,"EPOCH":"2022-09-26T18:20:30.893280","REV_AT_EPOCH":"10988","SEMIMAJOR_AXIS":"6925.330","PERIOD":"95.592","MEAN_MOTION_DOT":"-0.00000166","TLE_LINE2":"2 46585  53.0564  52.6408 0001571  68.9315 291.1842 15.06406146109880","TIME_SYSTEM":"UTC","APOAPSIS":"548.283","RA_OF_ASC_NODE":"52.6408","CENTER_NAME":"EARTH","TLE_LINE1":"1 46585U 20070BF  22269.76424645 -.00000166  00000-0  77485-5 0  9996","PERIAPSIS":"546.107","CLASSIFICATION_TYPE":"U","COUNTRY_CODE":"US","FILE":"3584555","NORAD_CAT_ID":"46585","MEAN_MOTION_DDOT":"0.0000000000000","MEAN_MOTION":"15.06406146","EPHEMERIS_TYPE":"0","BSTAR":"0.00000774850000","ECCENTRICITY":"0.00015710","GP_ID":"213595705","SITE":"AFETR","OBJECT_ID":"2020-070BF","ARG_OF_PERICENTER":"68.9315","ELEMENT_SET_NO":"999","MEAN_ELEMENT_THEORY":"SGP4","REF_FRAME":"TEME","RCS_SIZE":"LARGE","INCLINATION":"53.0564","OBJECT_NAME":"STARLINK-1736"},{"MEAN_MOTION_DOT":"0.00000257","PERIOD":"95.592","TIME_SYSTEM":"UTC","TLE_LINE2":"2 46586  53.0556  56.5567 0001310  85.6637 274.4502 15.06402641109754","EPOCH":"2022-09-25T21:23:56.518368","REV_AT_EPOCH":"10975","DECAY_DATE":null,"SEMIMAJOR_AXIS":"6925.340","OBJECT_TYPE":"PAYLOAD","MEAN_ANOMALY":"274.4502","LAUNCH_DATE":"2020-10-06","COUNTRY_CODE":"US","CLASSIFICATION_TYPE":"U","CENTER_NAME":"EARTH","PERIAPSIS":"546.298","TLE_LINE1":"1 46586U 20070BG  22268.89162637  .00000257  00000-0  36150-4 0  9993","RA_OF_ASC_NODE":"56.5567","APOAPSIS":"548.113","BSTAR":"0.00003615000000","ECCENTRICITY":"0.00013100","EPHEMERIS_TYPE":"0","MEAN_MOTION":"15.06402641","MEAN_MOTION_DDOT":"0.0000000000000","NORAD_CAT_ID":"46586","FILE":"3584345","RCS_SIZE":"LARGE","INCLINATION":"53.0556","OBJECT_NAME":"STARLINK-1737","MEAN_ELEMENT_THEORY":"SGP4","REF_FRAME":"TEME","OBJECT_ID":"2020-070BG","ELEMENT_SET_NO":"999","ARG_OF_PERICENTER":"85.6637","SITE":"AFETR","GP_ID":"213541657"},{"OBJECT_NAME":"STARLINK-1746","INCLINATION":"53.0559","RCS_SIZE":"LARGE","REF_FRAME":"TEME","MEAN_ELEMENT_THEORY":"SGP4","ARG_OF_PERICENTER":"62.9448","ELEMENT_SET_NO":"999","OBJECT_ID":"2020-070BJ","GP_ID":"213576701","SITE":"AFETR","ECCENTRICITY":"0.00015520","BSTAR":"0.00000716780000","MEAN_MOTION":"15.06401364","MEAN_MOTION_DDOT":"0.0000000000000","EPHEMERIS_TYPE":"0","FILE":"3584507","NORAD_CAT_ID":"46588","CLASSIFICATION_TYPE":"U","COUNTRY_CODE":"US","TLE_LINE1":"1 46588U 20070BJ  22269.73570717 -.00000175  00000-0  71678-5 0  9996","PERIAPSIS":"546.135","CENTER_NAME":"EARTH","APOAPSIS":"548.284","RA_OF_ASC_NODE":"52.7797","TLE_LINE2":"2 46588  53.0559  52.7797 0001552  62.9448 297.1700 15.06401364109896","TIME_SYSTEM":"UTC","PERIOD":"95.592","MEAN_MOTION_DOT":"-0.00000175","SEMIMAJOR_AXIS":"6925.344","DECAY_DATE":null,"REV_AT_EPOCH":"10989","EPOCH":"2022-09-26T17:39:25.099488","OBJECT_TYPE":"PAYLOAD","LAUNCH_DATE":"2020-10-06","MEAN_ANOMALY":"297.1700"},{"OBJECT_TYPE":"PAYLOAD","MEAN_ANOMALY":"269.6117","LAUNCH_DATE":"2020-10-06","TIME_SYSTEM":"UTC","TLE_LINE2":"2 46589  53.0554  57.2800 0001498  90.5044 269.6117 15.06401916109726","MEAN_MOTION_DOT":"0.00000352","PERIOD":"95.592","SEMIMAJOR_AXIS":"6925.343","EPOCH":"2022-09-25T17:35:42.224640","REV_AT_EPOCH":"10972","DECAY_DATE":null,"RA_OF_ASC_NODE":"57.2800","APOAPSIS":"548.245","COUNTRY_CODE":"US","CLASSIFICATION_TYPE":"U","PERIAPSIS":"546.170","TLE_LINE1":"1 46589U 20070BK  22268.73312760  .00000352  00000-0  42558-4 0  9998","CENTER_NAME":"EARTH","EPHEMERIS_TYPE":"0","MEAN_MOTION":"15.06401916","MEAN_MOTION_DDOT":"0.0000000000000","FILE":"3583828","NORAD_CAT_ID":"46589","ECCENTRICITY":"0.00014980","BSTAR":"0.00004255800000","ELEMENT_SET_NO":"999","ARG_OF_PERICENTER":"90.5044","OBJECT_ID":"2020-070BK","SITE":"AFETR","GP_ID":"213503570","OBJECT_NAME":"STARLINK-1749","RCS_SIZE":"LARGE","INCLINATION":"53.0554","REF_FRAME":"TEME","MEAN_ELEMENT_THEORY":"SGP4"},{"CENTER_NAME":"EARTH","PERIAPSIS":"546.252","TLE_LINE1":"1 46591U 20070BM  22269.84998292  .00000544  00000-0  55428-4 0  9997","COUNTRY_CODE":"US","CLASSIFICATION_TYPE":"U","RA_OF_ASC_NODE":"52.2611","APOAPSIS":"548.198","REV_AT_EPOCH":"10895","EPOCH":"2022-09-26T20:23:58.524288","DECAY_DATE":null,"SEMIMAJOR_AXIS":"6925.360","MEAN_MOTION_DOT":"0.00000544","PERIOD":"95.592","TIME_SYSTEM":"UTC","TLE_LINE2":"2 46591  53.0560  52.2611 0001405  74.5040 285.6104 15.06396168108957","MEAN_ANOMALY":"285.6104","LAUNCH_DATE":"2020-10-06","OBJECT_TYPE":"PAYLOAD","MEAN_ELEMENT_THEORY":"SGP4","REF_FRAME":"TEME","RCS_SIZE":"LARGE","INCLINATION":"53.0560","OBJECT_NAME":"STARLINK-1755","SITE":"AFETR","GP_ID":"213596206","OBJECT_ID":"2020-070BM","ELEMENT_SET_NO":"999","ARG_OF_PERICENTER":"74.5040","BSTAR":"0.00005542800000","ECCENTRICITY":"0.00014050","FILE":"3584555","NORAD_CAT_ID":"46591","EPHEMERIS_TYPE":"0","MEAN_MOTION":"15.06396168","MEAN_MOTION_DDOT":"0.0000000000000"}];
